[{"COMMENT":"GENERATED VIA SPACETRACK.ORG API","ORIGINATOR":"18 SPCS","NORAD_CAT_ID":"43477","OBJECT_NAME":"GRACE-FO 2","OBJECT_TYPE":"PAYLOAD","CLASSIFICATION_TYPE":"U","INTLDES":"18047B","EPOCH":"2023-12-13 14:28:10","EPOCH_MICROSECONDS":"705152","MEAN_MOTION":"15.27562212","ECCENTRICITY":"0.0016604","INCLINATION":"88.9813","RA_OF_ASC_NODE":"324.7379","ARG_OF_PERICENTER":"71.3637","MEAN_ANOMALY":"288.9414","EPHEMERIS_TYPE":"0","ELEMENT_SET_NO":"999","REV_AT_EPOCH":"30937","BSTAR":"0.00010691","MEAN_MOTION_DOT":"0.00002921","MEAN_MOTION_DDOT":"0","FILE":"4135433","TLE_LINE0":"0 GRACE-FO 2","TLE_LINE1":"1 43477U 18047B   23347.60290168  .00002921  00000-0  10691-3 0  9990","TLE_LINE2":"2 43477  88.9813 324.7379 0016604  71.3637 288.9414 15.27562212309374","OBJECT_ID":"2018-047B","OBJECT_NUMBER":"43477","SEMIMAJOR_AXIS":"6861.239","PERIOD":"94.268","APOGEE":"494.497","PERIGEE":"471.712","DECAYED":"0"},{"COMMENT":"GENERATED VIA SPACETRACK.ORG API","ORIGINATOR":"18 SPCS","NORAD_CAT_ID":"43477","OBJECT_NAME":"GRACE-FO 2","OBJECT_TYPE":"PAYLOAD","CLASSIFICATION_TYPE":"U","INTLDES":"18047B","EPOCH":"2023-12-13 22:19:50","EPOCH_MICROSECONDS":"822112","MEAN_MOTION":"15.27564216","ECCENTRICITY":"0.0016575","INCLINATION":"88.9814","RA_OF_ASC_NODE":"324.693","ARG_OF_PERICENTER":"70.3323","MEAN_ANOMALY":"289.9713","EPHEMERIS_TYPE":"0","ELEMENT_SET_NO":"999","REV_AT_EPOCH":"30942","BSTAR":"0.00010834","MEAN_MOTION_DOT":"0.0000296","MEAN_MOTION_DDOT":"0","FILE":"4135688","TLE_LINE0":"0 GRACE-FO 2","TLE_LINE1":"1 43477U 18047B   23347.93044933  .00002960  00000-0  10834-3 0  9995","TLE_LINE2":"2 43477  88.9814 324.6930 0016575  70.3323 289.9713 15.27564216309420","OBJECT_ID":"2018-047B","OBJECT_NUMBER":"43477","SEMIMAJOR_AXIS":"6861.233","PERIOD":"94.268","APOGEE":"494.471","PERIGEE":"471.726","DECAYED":"0"},{"COMMENT":"GENERATED VIA SPACETRACK.ORG API","ORIGINATOR":"18 SPCS","NORAD_CAT_ID":"43477","OBJECT_NAME":"GRACE-FO 2","OBJECT_TYPE":"PAYLOAD","CLASSIFICATION_TYPE":"U","INTLDES":"18047B","EPOCH":"2023-12-14 10:54:30","EPOCH_MICROSECONDS":"931488","MEAN_MOTION":"15.27568095","ECCENTRICITY":"0.0016533","INCLINATION":"88.9816","RA_OF_ASC_NODE":"324.6211","ARG_OF_PERICENTER":"68.7055","MEAN_ANOMALY":"291.5958","EPHEMERIS_TYPE":"0","ELEMENT_SET_NO":"999","REV_AT_EPOCH":"30950","BSTAR":"0.00011408","MEAN_MOTION_DOT":"0.00003115","MEAN_MOTION_DDOT":"0","FILE":"4135997","TLE_LINE0":"0 GRACE-FO 2","TLE_LINE1":"1 43477U 18047B   23348.45452467  .00003115  00000-0  11408-3 0  9999","TLE_LINE2":"2 43477  88.9816 324.6211 0016533  68.7055 291.5958 15.27568095309509","OBJECT_ID":"2018-047B","OBJECT_NUMBER":"43477","SEMIMAJOR_AXIS":"6861.222","PERIOD":"94.267","APOGEE":"494.430","PERIGEE":"471.743","DECAYED":"0"},{"COMMENT":"GENERATED VIA SPACETRACK.ORG API","ORIGINATOR":"18 SPCS","NORAD_CAT_ID":"43477","OBJECT_NAME":"GRACE-FO 2","OBJECT_TYPE":"PAYLOAD","CLASSIFICATION_TYPE":"U","INTLDES":"18047B","EPOCH":"2023-12-14 14:03:10","EPOCH_MICROSECONDS":"956672","MEAN_MOTION":"15.27568444","ECCENTRICITY":"0.0016524","INCLINATION":"88.9816","RA_OF_ASC_NODE":"324.6031","ARG_OF_PERICENTER":"68.3009","MEAN_ANOMALY":"291.9997","EPHEMERIS_TYPE":"0","ELEMENT_SET_NO":"999","REV_AT_EPOCH":"30952","BSTAR":"0.0001118","MEAN_MOTION_DOT":"0.00003054","MEAN_MOTION_DDOT":"0","FILE":"4136178","TLE_LINE0":"0 GRACE-FO 2","TLE_LINE1":"1 43477U 18047B   23348.58554348  .00003054  00000-0  11180-3 0  9993","TLE_LINE2":"2 43477  88.9816 324.6031 0016524  68.3009 291.9997 15.27568444309521","OBJECT_ID":"2018-047B","OBJECT_NUMBER":"43477","SEMIMAJOR_AXIS":"6861.221","PERIOD":"94.267","APOGEE":"494.423","PERIGEE":"471.748","DECAYED":"0"},{"COMMENT":"GENERATED VIA SPACETRACK.ORG API","ORIGINATOR":"18 SPCS","NORAD_CAT_ID":"43477","OBJECT_NAME":"GRACE-FO 2","OBJECT_TYPE":"PAYLOAD","CLASSIFICATION_TYPE":"U","INTLDES":"18047B","EPOCH":"2023-12-14 21:54:50","EPOCH_MICROSECONDS":"944032","MEAN_MOTION":"15.27570235","ECCENTRICITY":"0.0016508","INCLINATION":"88.9818","RA_OF_ASC_NODE":"324.558","ARG_OF_PERICENTER":"67.3473","MEAN_ANOMALY":"292.952","EPHEMERIS_TYPE":"0","ELEMENT_SET_NO":"999","REV_AT_EPOCH":"30957","BSTAR":"0.00010322","MEAN_MOTION_DOT":"0.00002822","MEAN_MOTION_DDOT":"0","FILE":"4136513","TLE_LINE0":"0 GRACE-FO 2","TLE_LINE1":"1 43477U 18047B   23348.91308963  .00002822  00000-0  10322-3 0  9999","TLE_LINE2":"2 43477  88.9818 324.5580 0016508  67.3473 292.9520 15.27570235309576","OBJECT_ID":"2018-047B","OBJECT_NUMBER":"43477","SEMIMAJOR_AXIS":"6861.215","PERIOD":"94.267","APOGEE":"494.407","PERIGEE":"471.754","DECAYED":"0"},{"COMMENT":"GENERATED VIA SPACETRACK.ORG API","ORIGINATOR":"18 SPCS","NORAD_CAT_ID":"43477","OBJECT_NAME":"GRACE-FO 2","OBJECT_TYPE":"PAYLOAD","CLASSIFICATION_TYPE":"U","INTLDES":"18047B","EPOCH":"2023-12-15 13:38:10","EPOCH_MICROSECONDS":"812480","MEAN_MOTION":"15.27575291","ECCENTRICITY":"0.0016462","INCLINATION":"88.9821","RA_OF_ASC_NODE":"324.4683","ARG_OF_PERICENTER":"65.2609","MEAN_ANOMALY":"295.0351","EPHEMERIS_TYPE":"0","ELEMENT_SET_NO":"999","REV_AT_EPOCH":"30967","BSTAR":"0.00011883","MEAN_MOTION_DOT":"0.00003244","MEAN_MOTION_DDOT":"0","FILE":"4137031","TLE_LINE0":"0 GRACE-FO 2","TLE_LINE1":"1 43477U 18047B   23349.56818070  .00003244  00000-0  11883-3 0  9998","TLE_LINE2":"2 43477  88.9821 324.4683 0016462  65.2609 295.0351 15.27575291309674","OBJECT_ID":"2018-047B","OBJECT_NUMBER":"43477","SEMIMAJOR_AXIS":"6861.200","PERIOD":"94.267","APOGEE":"494.360","PERIGEE":"471.770","DECAYED":"0"},{"COMMENT":"GENERATED VIA SPACETRACK.ORG API","ORIGINATOR":"18 SPCS","NORAD_CAT_ID":"43477","OBJECT_NAME":"GRACE-FO 2","OBJECT_TYPE":"PAYLOAD","CLASSIFICATION_TYPE":"U","INTLDES":"18047B","EPOCH":"2023-12-15 19:55:30","EPOCH_MICROSECONDS":"722880","MEAN_MOTION":"15.27577113","ECCENTRICITY":"0.0016446","INCLINATION":"88.9821","RA_OF_ASC_NODE":"324.4324","ARG_OF_PERICENTER":"64.3976","MEAN_ANOMALY":"295.8971","EPHEMERIS_TYPE":"0","ELEMENT_SET_NO":"999","REV_AT_EPOCH":"30971","BSTAR":"0.0001205","MEAN_MOTION_DOT":"0.0000329","MEAN_MOTION_DDOT":"0","FILE":"4137057","TLE_LINE0":"0 GRACE-FO 2","TLE_LINE1":"1 43477U 18047B   23349.83021670  .00003290  00000-0  12050-3 0  9998","TLE_LINE2":"2 43477  88.9821 324.4324 0016446  64.3976 295.8971 15.27577113309711","OBJECT_ID":"2018-047B","OBJECT_NUMBER":"43477","SEMIMAJOR_AXIS":"6861.195","PERIOD":"94.267","APOGEE":"494.344","PERIGEE":"471.776","DECAYED":"0"},{"COMMENT":"GENERATED VIA SPACETRACK.ORG API","ORIGINATOR":"18 SPCS","NORAD_CAT_ID":"43477","OBJECT_NAME":"GRACE-FO 2","OBJECT_TYPE":"PAYLOAD","CLASSIFICATION_TYPE":"U","INTLDES":"18047B","EPOCH":"2023-12-15 23:04:10","EPOCH_MICROSECONDS":"641792","MEAN_MOTION":"15.2757814","ECCENTRICITY":"0.0016436","INCLINATION":"88.9821","RA_OF_ASC_NODE":"324.4144","ARG_OF_PERICENTER":"63.9754","MEAN_ANOMALY":"296.3186","EPHEMERIS_TYPE":"0","ELEMENT_SET_NO":"999","REV_AT_EPOCH":"30973","BSTAR":"0.00012013","MEAN_MOTION_DOT":"0.0000328","MEAN_MOTION_DDOT":"0","FILE":"4137270","TLE_LINE0":"0 GRACE-FO 2","TLE_LINE1":"1 43477U 18047B   23349.96123428  .00003280  00000-0  12013-3 0  9994","TLE_LINE2":"2 43477  88.9821 324.4144 0016436  63.9754 296.3186 15.27578140309736","OBJECT_ID":"2018-047B","OBJECT_NUMBER":"43477","SEMIMAJOR_AXIS":"6861.192","PERIOD":"94.267","APOGEE":"494.334","PERIGEE":"471.780","DECAYED":"0"},{"COMMENT":"GENERATED VIA SPACETRACK.ORG API","ORIGINATOR":"18 SPCS","NORAD_CAT_ID":"43477","OBJECT_NAME":"GRACE-FO 2","OBJECT_TYPE":"PAYLOAD","CLASSIFICATION_TYPE":"U","INTLDES":"18047B","EPOCH":"2023-12-16 13:13:10","EPOCH_MICROSECONDS":"242336","MEAN_MOTION":"15.27584007","ECCENTRICITY":"0.0016391","INCLINATION":"88.9823","RA_OF_ASC_NODE":"324.3337","ARG_OF_PERICENTER":"62.0698","MEAN_ANOMALY":"298.2209","EPHEMERIS_TYPE":"0","ELEMENT_SET_NO":"999","REV_AT_EPOCH":"30982","BSTAR":"0.00014725","MEAN_MOTION_DOT":"0.00004013","MEAN_MOTION_DDOT":"0","FILE":"4137834","TLE_LINE0":"0 GRACE-FO 2","TLE_LINE1":"1 43477U 18047B   23350.55081299  .00004013  00000-0  14725-3 0  9997","TLE_LINE2":"2 43477  88.9823 324.3337 0016391  62.0698 298.2209 15.27584007309824","OBJECT_ID":"2018-047B","OBJECT_NUMBER":"43477","SEMIMAJOR_AXIS":"6861.174","PERIOD":"94.267","APOGEE":"494.285","PERIGEE":"471.793","DECAYED":"0"},{"COMMENT":"GENERATED VIA SPACETRACK.ORG API","ORIGINATOR":"18 SPCS","NORAD_CAT_ID":"43477","OBJECT_NAME":"GRACE-FO 2","OBJECT_TYPE":"PAYLOAD","CLASSIFICATION_TYPE":"U","INTLDES":"18047B","EPOCH":"2023-12-16 22:39:09","EPOCH_MICROSECONDS":"903168","MEAN_MOTION":"15.27585964","ECCENTRICITY":"0.0016353","INCLINATION":"88.9824","RA_OF_ASC_NODE":"324.2799","ARG_OF_PERICENTER":"60.79","MEAN_ANOMALY":"299.4983","EPHEMERIS_TYPE":"0","ELEMENT_SET_NO":"999","REV_AT_EPOCH":"30988","BSTAR":"0.00013124","MEAN_MOTION_DOT":"0.00003581","MEAN_MOTION_DDOT":"0","FILE":"4138106","TLE_LINE0":"0 GRACE-FO 2","TLE_LINE1":"1 43477U 18047B   23350.94386462  .00003581  00000-0  13124-3 0  9991","TLE_LINE2":"2 43477  88.9824 324.2799 0016353  60.7900 299.4983 15.27585964309886","OBJECT_ID":"2018-047B","OBJECT_NUMBER":"43477","SEMIMAJOR_AXIS":"6861.168","PERIOD":"94.266","APOGEE":"494.253","PERIGEE":"471.813","DECAYED":"0"}]